#aV2012 11 23  0  0  0.00000000     288 DD+AD WGS84 FIT  NGA
## 1715 432000.00000000   300.00000000 56254 0.0000000000000
+   31     1  2  3  4  5  6  7  8  9 10 11 12 13 14 15 16 17
+         18 19 20 21 22 23 24 25 26 28 29 30 31 32  0  0  0
+          0  0  0  0  0  0  0  0  0  0  0  0  0  0  0  0  0
+          0  0  0  0  0  0  0  0  0  0  0  0  0  0  0  0  0
+          0  0  0  0  0  0  0  0  0  0  0  0  0  0  0  0  0
++         2  2  2  2  2  2  2  2  2  2  2  2  2  2  2  2  2
++         2  2  2  2  2  2  2  2  2  2  2  2  2  2  2  0  0
++         0  0  0  0  0  0  0  0  0  0  0  0  0  0  0  0  0
++         0  0  0  0  0  0  0  0  0  0  0  0  0  0  0  0  0
++         0  0  0  0  0  0  0  0  0  0  0  0  0  0  0  0  0
%c cc cc ccc ccc cccc cccc cccc cccc ccccc ccccc ccccc ccccc
%c cc cc ccc ccc cccc cccc cccc cccc ccccc ccccc ccccc ccccc
%f  0.0000000  0.000000000  0.00000000000  0.000000000000000
%f  0.0000000  0.000000000  0.00000000000  0.000000000000000
%i    0    0    0    0      0      0      0      0         0
%i    0    0    0    0      0      0      0      0         0
/*      NGA, ST. LOUIS,MO.                                  
/*   EPHEMERIS COMPUTED FROM  1 DAYS OF DATA
/*   EPOCHA SMOOTHER  
/* CCCCCCCCCCCCCCCCCCCCCCCCCCCCCCCCCCCCCCCCCCCCCCCCCCCCCCCCC
*  2012 11 23  1 25  0.00000000                                                 
P  1 -14135.902168   7322.945722  21228.578878    283.807767                    
V  1  -3673.160065 -26779.440829   6842.712190      0.019000                    
P  2  14126.855665  15588.187582 -16352.143407    409.684568                    
V  2    722.571768  21006.239331  19944.559850      0.010652                    
P  3 -24731.251007  -9592.661106  -3445.774546    132.104647                    
V  3   4547.508623  -2267.671709 -30565.715717      0.051363                    
P  4   6579.450765  25121.772365  -5029.197277     54.148303                    
V  4  -2963.912878   6498.326446  30538.718717      0.111906                    
P  5  18294.508252   3394.975558 -19035.055551   -368.331577                    
V  5 -18530.650217  15469.346963 -14930.096751     -0.024555                    
P  6 -21726.097442 -13682.322573  -7334.606006    448.127090                    
V  6   9859.430728    381.787432 -29193.968781     -0.122237                    
P  7  -7374.780779  21299.278362 -13777.520253    148.703676                    
V  7  -3669.764686 -17380.430122 -25108.126626      0.044736                    
P  8  -1122.118191  26125.736766  -1987.314873      3.000155                    
V  8  -2137.048255  -2665.721348 -32834.154489      0.002107                    
P  9  14446.312244   -748.246364  21723.727931    201.610177                    
V  9   3281.431583  28670.628572  -1214.632654      0.025922                    
P 10   2183.963363  16761.215261 -20672.902497    -59.443400                    
V 10 -21703.817666  13967.448142   9565.726491     -0.014380                    
P 11 -17136.613307    943.997668  19890.154156   -325.968483                    
V 11  -9284.041140 -24833.497774  -6383.836261     -0.038376                    
P 12  23245.899157 -10742.409700   6639.607492    103.063055                    
V 12  -5714.732733   6639.704260  30850.793882      0.020252                    
P 13 -11811.848495   9979.749451 -21742.727102    165.320217                    
V 13 -23592.047490 -13557.367810   6526.421318     -0.026899                    
P 14  -6495.714936 -17779.489872  18887.718005    217.179214                    
V 14  21322.505082   9892.467228  16681.172085      0.006185                    
P 15  24835.582461   2810.120570   9321.978311   -100.325894                    
V 15   9857.229365   7098.058932 -28131.199281     -0.009633                    
P 16 -17958.035535  -3531.420558 -19370.877989   -249.924528                    
V 16  19836.123177 -14266.239152 -15485.187540     -0.005184                    
P 17   7744.703831  17884.362710  18345.960859     76.119342                    
V 17 -21109.088352  -8742.674233  17374.540801     -0.035398                    
P 18  13148.422083 -20090.149691  11343.634501    225.923184                    
V 18  13349.368079  -5515.045872 -26474.030568      0.018393                    
P 19 -24534.835387  -7312.901347   7737.264614   -324.594739                    
V 19  -7490.605075  -6762.068504 -29455.226987     -0.034303                    
P 20 -22340.382672  13276.700768   5118.801440     74.184879                    
V 20   2843.166983  -7200.778995  30173.828297      0.011628                    
P 21   4886.207335 -23612.689054  -9968.148837   -263.903850                    
V 21   5329.382101  13151.423978 -27693.484656     -0.023646                    
P 22    570.472148 -18352.792303  19334.714355    151.832799                    
V 22  20677.063327 -12923.978728 -13131.954481      0.009120                    
P 23 -21694.187676   2053.917036 -15386.177846    141.263587                    
V 23 -17008.690250  -9703.839677  22223.680384     -0.038307                    
P 24  14971.215352  -3091.616906  21722.896001      3.544723                    
V 24   3411.109152  27369.679177   1553.175840     -0.005937                    
P 25  18711.336097 -18168.169540  -4860.073576     52.527462                    
V 25   6395.880081  -1685.647458  31230.879861      0.019889                    
P 26  22877.893739  13827.516165  -1677.960092   -200.430711                    
V 26  -2068.266266    973.791081 -31879.039057      0.135814                    
P 28  -5094.446219  18462.953112  18878.601122    207.219167                    
V 28 -19682.867226  11607.480399 -17394.391824      0.036000                    
P 29  13401.279671  -9485.641826 -20819.955842    379.926420                    
V 29  23441.407501  12490.026783   9411.937048      0.040281                    
P 30  -9205.949413 -12341.863818 -21999.466994   -310.327060                    
V 30  20167.785635 -18073.639622   1704.777836      0.151088                    
P 31  -7689.638783 -23836.595706  -8250.740994    288.297976                    
V 31   1294.489118 -10951.677690  29991.464432      0.021622                    
P 32 -22751.384364   2919.316963  13109.759452   -510.384109                    
V 32  12703.367496 -11042.734578  25325.141006     -0.034614                    
EOF
